{
  "norad_id": 39420,
  "name": "OPTOS",
  "history": [
    {
      "epoch": "2026-03-28T14:27:34.272864Z",
      "apogee_km": 735.542232047269,
      "perigee_km": 573.1106114102313,
      "latitude_deg": -1.5979649646229334e-06,
      "longitude_deg": -86.07877059095281,
      "height_km": 654.5822765270411,
      "semi_major_axis_km": 7032.463421728749,
      "eccentricity": 0.0115487,
      "inclination_deg": 97.6927,
      "raan_deg": 316.8346,
      "arg_perigee_deg": 271.4074,
      "mean_anomaly_deg": 87.3907,
      "mean_motion_rev_day": 14.72114326
    },
    {
      "epoch": "2026-03-29T01:52:43.004928Z",
      "apogee_km": 735.5262035518408,
      "perigee_km": 573.1158054131201,
      "latitude_deg": -2.1535161665396534e-05,
      "longitude_deg": 102.61618291798584,
      "height_km": 656.7827183678759,
      "semi_major_axis_km": 7032.45800448248,
      "eccentricity": 0.0115472,
      "inclination_deg": 97.6926,
      "raan_deg": 317.2849,
      "arg_perigee_deg": 269.851,
      "mean_anomaly_deg": 88.9466,
      "mean_motion_rev_day": 14.72116027
    },
    {
      "epoch": "2026-03-30T02:20:52.971648Z",
      "apogee_km": 735.4993134994247,
      "perigee_km": 573.1131666429419,
      "latitude_deg": 2.541532386798589e-06,
      "longitude_deg": 95.53472826960801,
      "height_km": 661.4834496880542,
      "semi_major_axis_km": 7032.443240071183,
      "eccentricity": 0.0115455,
      "inclination_deg": 97.6924,
      "raan_deg": 318.2499,
      "arg_perigee_deg": 266.524,
      "mean_anomaly_deg": 92.2757,
      "mean_motion_rev_day": 14.72120663
    },
    {
      "epoch": "2026-03-30T02:20:52.972512Z",
      "apogee_km": 735.4996651215861,
      "perigee_km": 573.1128150207796,
      "latitude_deg": 8.24284247830995e-06,
      "longitude_deg": 95.53472389383671,
      "height_km": 661.483471014657,
      "semi_major_axis_km": 7032.443240071183,
      "eccentricity": 0.01154555,
      "inclination_deg": 97.6924,
      "raan_deg": 318.2499,
      "arg_perigee_deg": 266.524,
      "mean_anomaly_deg": 92.2757,
      "mean_motion_rev_day": 14.72120663
    },
    {
      "epoch": "2026-03-30T13:46:01.590528Z",
      "apogee_km": 735.4920053138194,
      "perigee_km": 573.1096404137388,
      "latitude_deg": 7.076323167651692e-05,
      "longitude_deg": -75.76985650849163,
      "height_km": 663.6735614598517,
      "semi_major_axis_km": 7032.437822863779,
      "eccentricity": 0.01154524,
      "inclination_deg": 97.6923,
      "raan_deg": 318.7002,
      "arg_perigee_deg": 264.9729,
      "mean_anomaly_deg": 93.8293,
      "mean_motion_rev_day": 14.72122364
    },
    {
      "epoch": "2026-03-31T04:26:55.506624Z",
      "apogee_km": 735.4808789335711,
      "perigee_km": 573.1062763541213,
      "latitude_deg": -9.148013934236522e-06,
      "longitude_deg": 63.98145091193187,
      "height_km": 666.4868170787618,
      "semi_major_axis_km": 7032.430577643846,
      "eccentricity": 0.0115447,
      "inclination_deg": 97.6922,
      "raan_deg": 319.2791,
      "arg_perigee_deg": 262.9756,
      "mean_anomaly_deg": 95.8311,
      "mean_motion_rev_day": 14.72124639
    },
    {
      "epoch": "2026-04-01T21:13:51.593088Z",
      "apogee_km": 735.4769576942672,
      "perigee_km": 573.0801977244555,
      "latitude_deg": 3.508366363745668e-05,
      "longitude_deg": 172.18108626525265,
      "height_km": 674.2463956011335,
      "semi_major_axis_km": 7032.415577709361,
      "eccentricity": 0.0115463,
      "inclination_deg": 97.6919,
      "raan_deg": 320.8873,
      "arg_perigee_deg": 257.4275,
      "mean_anomaly_deg": 101.4,
      "mean_motion_rev_day": 14.72129349
    },
    {
      "epoch": "2026-04-02T13:32:37.843296Z",
      "apogee_km": 735.4579276899294,
      "perigee_km": 573.0777311057809,
      "latitude_deg": 2.6914576711499716e-05,
      "longitude_deg": -72.53826613333239,
      "height_km": 677.2997950246946,
      "semi_major_axis_km": 7032.404829397855,
      "eccentricity": 0.01154514,
      "inclination_deg": 97.6917,
      "raan_deg": 321.5306,
      "arg_perigee_deg": 255.2119,
      "mean_anomaly_deg": 103.6275,
      "mean_motion_rev_day": 14.72132724
    },
    {
      "epoch": "2026-04-02T21:42:00.826272Z",
      "apogee_km": 735.4386719335462,
      "perigee_km": 573.0708725565601,
      "latitude_deg": -6.323375466314694e-07,
      "longitude_deg": 165.10260460955553,
      "height_km": 678.8117735637092,
      "semi_major_axis_km": 7032.391772245052,
      "eccentricity": 0.01154428,
      "inclination_deg": 97.6916,
      "raan_deg": 321.8522,
      "arg_perigee_deg": 254.101,
      "mean_anomaly_deg": 104.7451,
      "mean_motion_rev_day": 14.72136824
    },
    {
      "epoch": "2026-04-03T14:00:47.033280Z",
      "apogee_km": 735.4158467117422,
      "perigee_km": 573.0719274572193,
      "latitude_deg": -9.56894381359187e-07,
      "longitude_deg": -79.61626886334476,
      "height_km": 681.8470316934918,
      "semi_major_axis_km": 7032.3808870844805,
      "eccentricity": 0.0115426,
      "inclination_deg": 97.691,
      "raan_deg": 322.4958,
      "arg_perigee_deg": 251.864,
      "mean_anomaly_deg": 106.9971,
      "mean_motion_rev_day": 14.72140242
    },
    {
      "epoch": "2026-04-05T13:19:12.121824Z",
      "apogee_km": 735.4164838897541,
      "perigee_km": 573.0199921434942,
      "latitude_deg": 1.1209195763361168e-05,
      "longitude_deg": -69.29843625624079,
      "height_km": 690.3787463529441,
      "semi_major_axis_km": 7032.355238016624,
      "eccentricity": 0.01154638,
      "inclination_deg": 97.6905,
      "raan_deg": 324.361,
      "arg_perigee_deg": 245.4328,
      "mean_anomaly_deg": 113.4812,
      "mean_motion_rev_day": 14.72148296
    },
    {
      "epoch": "2026-04-05T21:28:34.992480Z",
      "apogee_km": 735.4159519318473,
      "perigee_km": 573.0136325821804,
      "latitude_deg": -2.3454066815726782e-05,
      "longitude_deg": 168.3429038772617,
      "height_km": 691.8141522698655,
      "semi_major_axis_km": 7032.351792257014,
      "eccentricity": 0.0115468,
      "inclination_deg": 97.6905,
      "raan_deg": 324.6826,
      "arg_perigee_deg": 244.3223,
      "mean_anomaly_deg": 114.6024,
      "mean_motion_rev_day": 14.72149378
    },
    {
      "epoch": "2026-04-06T05:37:57.850176Z",
      "apogee_km": 735.4182226422727,
      "perigee_km": 573.0034767612287,
      "latitude_deg": 3.9018785868073224e-05,
      "longitude_deg": 45.98428495026675,
      "height_km": 693.237245026401,
      "semi_major_axis_km": 7032.34784970175,
      "eccentricity": 0.01154769,
      "inclination_deg": 97.6904,
      "raan_deg": 325.0042,
      "arg_perigee_deg": 243.2123,
      "mean_anomaly_deg": 115.7236,
      "mean_motion_rev_day": 14.72150616
    },
    {
      "epoch": "2026-04-07T14:15:29.185056Z",
      "apogee_km": 735.4302989286762,
      "perigee_km": 572.9692547105878,
      "latitude_deg": -3.772506117318351e-05,
      "longitude_deg": -83.44994675159025,
      "height_km": 698.7891085763292,
      "semi_major_axis_km": 7032.336776819631,
      "eccentricity": 0.011551,
      "inclination_deg": 97.6903,
      "raan_deg": 326.2904,
      "arg_perigee_deg": 238.778,
      "mean_anomaly_deg": 120.2068,
      "mean_motion_rev_day": 14.72154093
    },
    {
      "epoch": "2026-04-08T14:43:37.598304Z",
      "apogee_km": 735.4529049718221,
      "perigee_km": 572.9328084052104,
      "latitude_deg": 7.421581394080632e-05,
      "longitude_deg": -90.52522634456015,
      "height_km": 702.7988419354492,
      "semi_major_axis_km": 7032.329856688516,
      "eccentricity": 0.01155521,
      "inclination_deg": 97.6903,
      "raan_deg": 327.2551,
      "arg_perigee_deg": 235.4555,
      "mean_anomaly_deg": 123.5705,
      "mean_motion_rev_day": 14.72156266
    },
    {
      "epoch": "2026-04-09T08:40:15.762720Z",
      "apogee_km": 735.4717672518445,
      "perigee_km": 572.9007682909514,
      "latitude_deg": 1.9041709235531362e-06,
      "longitude_deg": 0.2863315168259158,
      "height_km": 705.6279721990754,
      "semi_major_axis_km": 7032.323267771398,
      "eccentricity": 0.01155884,
      "inclination_deg": 97.6905,
      "raan_deg": 327.9626,
      "arg_perigee_deg": 233.034,
      "mean_anomaly_deg": 126.0242,
      "mean_motion_rev_day": 14.72158335
    },
    {
      "epoch": "2026-04-10T12:24:09.098208Z",
      "apogee_km": 735.4971531229667,
      "perigee_km": 572.8580009737389,
      "latitude_deg": 1.8477424552734954e-05,
      "longitude_deg": -55.73149650003368,
      "height_km": 709.8535743993856,
      "semi_major_axis_km": 7032.3145770483525,
      "eccentricity": 0.0115637,
      "inclination_deg": 97.6903,
      "raan_deg": 329.0559,
      "arg_perigee_deg": 229.2699,
      "mean_anomaly_deg": 129.8424,
      "mean_motion_rev_day": 14.72161064
    },
    {
      "epoch": "2026-04-11T21:01:40.021824Z",
      "apogee_km": 735.5402682894637,
      "perigee_km": 572.802803536486,
      "latitude_deg": 4.715218248715905e-05,
      "longitude_deg": 174.8360770557428,
      "height_km": 714.548727284625,
      "semi_major_axis_km": 7032.308535912975,
      "eccentricity": 0.0115707,
      "inclination_deg": 97.6902,
      "raan_deg": 330.3422,
      "arg_perigee_deg": 224.8391,
      "mean_anomaly_deg": 134.3425,
      "mean_motion_rev_day": 14.72162961
    },
    {
      "epoch": "2026-04-13T02:23:25.787328Z",
      "apogee_km": 735.5813708851983,
      "perigee_km": 572.7499498905036,
      "latitude_deg": 1.000587239801033e-05,
      "longitude_deg": 94.34710804180897,
      "height_km": 718.4830785195071,
      "semi_major_axis_km": 7032.302660387851,
      "eccentricity": 0.01157739,
      "inclination_deg": 97.69,
      "raan_deg": 331.4998,
      "arg_perigee_deg": 220.8544,
      "mean_anomaly_deg": 138.3944,
      "mean_motion_rev_day": 14.72164806
    },
    {
      "epoch": "2026-04-14T01:13:41.358432Z",
      "apogee_km": 735.6157828049818,
      "perigee_km": 572.7069651332868,
      "latitude_deg": 6.251539606314511e-05,
      "longitude_deg": 111.7446126845756,
      "height_km": 721.3385443581593,
      "semi_major_axis_km": 7032.2983739691335,
      "eccentricity": 0.0115829,
      "inclination_deg": 97.6898,
      "raan_deg": 332.4001,
      "arg_perigee_deg": 217.7592,
      "mean_anomaly_deg": 141.5449,
      "mean_motion_rev_day": 14.72166152
    }
  ]
}